OBJECT_NAME,OBJECT_ID,EPOCH,MEAN_MOTION,ECCENTRICITY,INCLINATION,RA_OF_ASC_NODE,ARG_OF_PERICENTER,MEAN_ANOMALY,EPHEMERIS_TYPE,CLASSIFICATION_TYPE,NORAD_CAT_ID,ELEMENT_SET_NO,REV_AT_EPOCH,BSTAR,MEAN_MOTION_DOT,MEAN_MOTION_DDOT
KUZGTU 1 (RS47S),2023-091AV,2026-07-12T17:37:28.138944,15.30435474,.0010324,97.5058,258.4821,15.1410,345.0137,0,U,57217,999,16828,.26726E-3,.78E-4,0
SONATE-2,2024-043Q,2026-07-12T11:32:04.729056,15.60670431,.00067521,97.5546,345.4684,114.0298,246.1666,0,U,59112,999,13183,.35798349E-3,.29638E-3,0
MESAT1,2024-125G,2026-07-12T13:26:37.913856,15.66181054,.00109567,97.2256,51.6710,120.7531,239.4810,0,U,60209,999,11353,.45928267E-3,.47409E-3,0
OOV-CUBE (TUBSAT-30),2024-128F,2026-07-12T09:44:43.201248,15.02866804,.00414886,61.9937,137.6292,139.4098,221.0100,0,U,60240,999,10990,.95468612E-4,.1093E-4,0
COLIBRI-S (RS67S),2024-199M,2026-07-12T20:23:35.452032,15.48784591,.0008708,97.2962,67.9524,170.4081,189.7338,0,U,61746,999,14138,.30647E-3,.16401E-3,0
HORS 3 (RS81S),2024-199U,2026-07-12T19:34:19.644096,15.56785126,.0006878,97.2942,70.1956,163.0092,197.1395,0,U,61753,999,14154,.44334E-3,.31744E-3,0
HORS 4 (RS82S),2024-199V,2026-07-12T19:42:53.700768,15.62211244,.0006787,97.2885,71.5813,154.7929,205.3661,0,U,61754,999,14164,.53309E-3,.46991E-3,0
SIT-2086,2024-199AF,2026-07-12T19:47:52.476288,15.54900461,.0007951,97.2900,70.5927,151.6454,208.5234,0,U,61764,999,13841,.48267E-3,.32264E-3,0
HYPERVIEW 1G (RS66S),2024-199AP,2026-07-12T20:12:24.372864,15.84524813,.0008235,97.2815,75.0067,153.0284,207.1415,0,U,61772,999,13872,.88736E-3,.207066E-2,0
ALTAIR (RS65S),2024-199AW,2026-07-12T19:46:20.430048,15.37475773,.0011778,97.3000,63.0098,205.3867,154.6801,0,U,61779,999,14105,.19387E-3,.7058E-4,0
ASRTU-1 (AO-123),2024-199AY,2026-07-12T20:02:33.688896,15.36033106,.0012758,97.2971,62.2768,209.5816,150.4708,0,U,61781,999,13786,.1456E-3,.504E-4,0
SAMSAT-IONOSPHERE (RS75S),2024-199BB,2026-07-12T20:46:56.805600,15.59964661,.0008961,97.2909,70.3958,168.0420,192.1052,0,U,61784,999,14156,.49733E-3,.40212E-3,0
RTU MIREA 1 (RS51S),2024-199BC,2026-07-12T19:53:03.139584,15.64063479,.0009051,97.2895,71.3326,162.7224,197.4345,0,U,61785,999,13847,.59397E-3,.56407E-3,0
TEVEL2-4,2025-052D,2026-07-12T16:04:45.612768,15.35507888,.0003752,97.3881,90.1160,57.2753,302.8852,0,U,63213,999,7402,.3728E-3,.12793E-3,0
TEVEL2-5,2025-052E,2026-07-12T04:07:43.933728,15.35309356,.0003832,97.3875,89.5570,59.0491,301.1129,0,U,63214,999,7394,.31446899E-3,.10707E-3,0
TEVEL2-6,2025-052F,2026-07-12T16:57:08.951904,15.35286777,.0003782,97.3879,90.0772,60.8657,299.2965,0,U,63215,999,7402,.3529E-3,.12019E-3,0
TEVEL2-1,2025-052H,2026-07-12T16:18:13.603104,15.34718554,.0004433,97.3853,89.6437,65.2904,294.8800,0,U,63217,999,7400,.34224E-3,.11444E-3,0
TEVEL2-3,2025-052J,2026-07-12T16:09:05.966208,15.34780805,.0004208,97.3855,89.6625,66.7009,293.4677,0,U,63218,999,7400,.35527E-3,.11907E-3,0
TEVEL2-2,2025-052K,2026-07-12T16:18:26.144064,15.34729067,.0004492,97.3850,89.6469,65.9197,294.2516,0,U,63219,999,7400,.34007E-3,.11375E-3,0
OTP-2,2025-052AB,2026-07-11T15:35:48.616800,15.24307968,.00083062,97.3846,84.7167,80.9023,279.3154,0,U,63235,999,7359,.17810231E-3,.4286E-4,0
TEVEL2-9,2025-052AD,2026-07-12T16:34:08.700672,15.32681322,.0007854,97.3920,88.9768,63.1836,297.0208,0,U,63237,999,7393,.32417E-3,.10164E-3,0
TEVEL2-7,2025-052AE,2026-07-12T16:06:18.403776,15.32366834,.0007933,97.3915,88.8620,63.7828,296.4229,0,U,63238,999,7392,.34652E-3,.10765E-3,0
TEVEL2-8,2025-052AF,2026-07-12T03:46:16.213440,15.32340401,.00080828,97.3920,88.3251,66.3395,293.8694,0,U,63239,999,7384,.29456705E-3,.913E-4,0
INNOSAT 16 (RS92S7),2025-155C,2026-07-12T20:16:22.137024,15.25724049,.0012471,97.4578,160.8975,95.4428,264.8233,0,U,64878,999,8458,.1471E-3,.3684E-4,0
GEOSCAN 6 (RS92S6),2025-155D,2026-07-12T21:04:05.368224,15.30627601,.0010004,97.4566,162.5398,88.6455,271.5931,0,U,64879,999,8469,.23527E-3,.6898E-4,0
GEOSCAN 1 (RS92S1),2025-155E,2026-07-12T20:52:36.767136,15.31272787,.0009954,97.4560,162.7030,88.8829,271.3552,0,U,64880,999,8470,.2691E-3,.8062E-4,0
239ALFEROV (RS61S),2025-155F,2026-07-12T20:48:04.065408,15.33630583,.0009642,97.4560,163.3506,88.5431,271.6916,0,U,64881,999,8474,.32981E-3,.10662E-3,0
GEOSCAN 2 (RS92S2),2025-155Q,2026-07-12T20:37:09.213024,15.31530838,.0009129,97.4560,162.8546,79.0127,281.2141,0,U,64890,999,8471,.25221E-3,.761E-4,0
GEOSCAN 5 (RS92S5),2025-155R,2026-07-12T20:24:42.743808,15.33936448,.0008652,97.4551,163.4813,92.8512,267.3721,0,U,64891,999,8475,.31455E-3,.1026E-3,0
GEOSCAN 4 (RS92S4),2025-155S,2026-07-12T19:58:05.880864,15.34103278,.0008584,97.4556,163.5187,93.1041,267.1184,0,U,64892,999,8475,.30776E-3,.1009E-3,0
