KUZGTU 1 (RS47S)        
1 57217U 23091AV  26193.73435346  .00007800  00000+0  26726-3 0  9993
2 57217  97.5058 258.4821 0010324  15.1410 345.0137 15.30435474168284
SONATE-2                
1 59112U 24043Q   26193.48061029  .00029638  00000+0  35798-3 0  9994
2 59112  97.5546 345.4684 0006752 114.0298 246.1666 15.60670431131835
MESAT1                  
1 60209U 24125G   26193.56016104  .00047409  00000+0  45928-3 0  9999
2 60209  97.2256  51.6710 0010956 120.7531 239.4810 15.66181054113537
OOV-CUBE (TUBSAT-30)    
1 60240U 24128F   26193.40605557  .00001093  00000+0  95469-4 0  9991
2 60240  61.9937 137.6292 0041488 139.4098 221.0100 15.02866804109903
COLIBRI-S (RS67S)       
1 61746U 24199M   26193.84971588  .00016401  00000+0  30647-3 0  9994
2 61746  97.2962  67.9524 0008708 170.4081 189.7338 15.48784591141386
HORS 3 (RS81S)          
1 61753U 24199U   26193.81550514  .00031744  00000+0  44334-3 0  9996
2 61753  97.2942  70.1956 0006878 163.0092 197.1395 15.56785126141541
HORS 4 (RS82S)          
1 61754U 24199V   26193.82145487  .00046991  00000+0  53309-3 0  9999
2 61754  97.2885  71.5813 0006787 154.7929 205.3661 15.62211244141641
SIT-2086                
1 61764U 24199AF  26193.82491292  .00032264  00000+0  48267-3 0  9993
2 61764  97.2900  70.5927 0007951 151.6454 208.5234 15.54900461138417
HYPERVIEW 1G (RS66S)    
1 61772U 24199AP  26193.84194876  .00207066  00000+0  88736-3 0  9991
2 61772  97.2815  75.0067 0008235 153.0284 207.1415 15.84524813138725
ALTAIR (RS65S)          
1 61779U 24199AW  26193.82384757  .00007058  00000+0  19387-3 0  9990
2 61779  97.3000  63.0098 0011778 205.3867 154.6801 15.37475773141057
ASRTU-1 (AO-123)        
1 61781U 24199AY  26193.83511214  .00005040  00000+0  14560-3 0  9991
2 61781  97.2971  62.2768 0012758 209.5816 150.4708 15.36033106137863
SAMSAT-IONOSPHERE (RS7*)
1 61784U 24199BB  26193.86593525  .00040212  00000+0  49733-3 0  9992
2 61784  97.2909  70.3958 0008961 168.0420 192.1052 15.59964661141560
RTU MIREA 1 (RS51S)     
1 61785U 24199BC  26193.82850856  .00056407  00000+0  59397-3 0  9992
2 61785  97.2895  71.3326 0009051 162.7224 197.4345 15.64063479138471
TEVEL2-4                
1 63213U 25052D   26193.66997237  .00012793  00000+0  37280-3 0  9993
2 63213  97.3881  90.1160 0003752  57.2753 302.8852 15.35507888 74027
TEVEL2-5                
1 63214U 25052E   26193.17203627  .00010707  00000+0  31447-3 0  9995
2 63214  97.3875  89.5570 0003832  59.0491 301.1129 15.35309356 73945
TEVEL2-6                
1 63215U 25052F   26193.70635361  .00012019  00000+0  35290-3 0  9997
2 63215  97.3879  90.0772 0003782  60.8657 299.2965 15.35286777 74025
TEVEL2-1                
1 63217U 25052H   26193.67932411  .00011444  00000+0  34224-3 0  9998
2 63217  97.3853  89.6437 0004433  65.2904 294.8800 15.34718554 74008
TEVEL2-3                
1 63218U 25052J   26193.67298572  .00011907  00000+0  35527-3 0  9993
2 63218  97.3855  89.6625 0004208  66.7009 293.4677 15.34780805 74007
TEVEL2-2                
1 63219U 25052K   26193.67946926  .00011375  00000+0  34007-3 0  9998
2 63219  97.3850  89.6469 0004492  65.9197 294.2516 15.34729067 74007
OTP-2                   
1 63235U 25052AB  26192.64986825  .00004286  00000+0  17810-3 0  9990
2 63235  97.3846  84.7167 0008306  80.9023 279.3154 15.24307968 73590
TEVEL2-9                
1 63237U 25052AD  26193.69037848  .00010164  00000+0  32417-3 0  9992
2 63237  97.3920  88.9768 0007854  63.1836 297.0208 15.32681322 73933
TEVEL2-7                
1 63238U 25052AE  26193.67104634  .00010765  00000+0  34652-3 0  9999
2 63238  97.3915  88.8620 0007933  63.7828 296.4229 15.32366834 73922
TEVEL2-8                
1 63239U 25052AF  26193.15713210  .00009130  00000+0  29457-3 0  9990
2 63239  97.3920  88.3251 0008082  66.3395 293.8694 15.32340401 73848
INNOSAT 16 (RS92S7)     
1 64878U 25155C   26193.84470066  .00003684  00000+0  14710-3 0  9993
2 64878  97.4578 160.8975 0012471  95.4428 264.8233 15.25724049 84580
GEOSCAN 6 (RS92S6)      
1 64879U 25155D   26193.87783991  .00006898  00000+0  23527-3 0  9997
2 64879  97.4566 162.5398 0010004  88.6455 271.5931 15.30627601 84694
GEOSCAN 1 (RS92S1)      
1 64880U 25155E   26193.86986999  .00008062  00000+0  26910-3 0  9995
2 64880  97.4560 162.7030 0009954  88.8829 271.3552 15.31272787 84705
239ALFEROV (RS61S)      
1 64881U 25155F   26193.86671372  .00010662  00000+0  32981-3 0  9996
2 64881  97.4560 163.3506 0009642  88.5431 271.6916 15.33630583 84746
GEOSCAN 2 (RS92S2)      
1 64890U 25155Q   26193.85913441  .00007610  00000+0  25221-3 0  9999
2 64890  97.4560 162.8546 0009129  79.0127 281.2141 15.31530838 84715
GEOSCAN 5 (RS92S5)      
1 64891U 25155R   26193.85049472  .00010260  00000+0  31455-3 0  9995
2 64891  97.4551 163.4813 0008652  92.8512 267.3721 15.33936448 84753
GEOSCAN 4 (RS92S4)      
1 64892U 25155S   26193.83201251  .00010090  00000+0  30776-3 0  9995
2 64892  97.4556 163.5187 0008584  93.1041 267.1184 15.34103278 84758
